STARLINK-32598          
1 62046U 24216Q   26068.90199706  .00034656  00000+0  12633-2 0  9996
2 62046  43.0025 254.6468 0001520 259.1292 100.9388 15.27570851 73917
TEVEL2-2                
1 63219U 25052K   26068.64848259  .00020339  00000+0  69428-3 0  9991
2 63219  97.3987 324.7700 0004693 105.7930 254.3828 15.30343745 54855
